[
  {
    "OBJECT_NAME": "STARLINK-33858",
    "OBJECT_ID": "25094X",
    "EPOCH": "2025-11-11T01:20:35.617920",
    "MEAN_MOTION": 14.98230022,
    "ECCENTRICITY": 0.0002366,
    "INCLINATION": 69.9999,
    "RA_OF_ASC_NODE": 173.5428,
    "ARG_OF_PERICENTER": 277.0219,
    "MEAN_ANOMALY": 83.0671,
    "EPHEMERIS_TYPE": 0,
    "CLASSIFICATION_TYPE": "U",
    "NORAD_CAT_ID": 63885,
    "ELEMENT_SET_NO": 999,
    "REV_AT_EPOCH": 2943,
    "BSTAR": 0.0031725,
    "MEAN_MOTION_DOT": 0.00037867,
    "MEAN_MOTION_DDOT": 0.0,
    "TLE_LINE1": "1 63885U 25094X   25315.05596780  .00037867  00000+0  31725-2 0  9996",
    "TLE_LINE2": "2 63885  69.9999 173.5428 0002366 277.0219  83.0671 14.98230022 29432",
    "COMMENT": "Grouped by shell and plane from TLE"
  },
  {
    "OBJECT_NAME": "STARLINK-33885",
    "OBJECT_ID": "25094Y",
    "EPOCH": "2025-11-11T00:56:14.952480",
    "MEAN_MOTION": 14.98342669,
    "ECCENTRICITY": 0.000273,
    "INCLINATION": 69.9999,
    "RA_OF_ASC_NODE": 173.4873,
    "ARG_OF_PERICENTER": 270.8811,
    "MEAN_ANOMALY": 89.2035,
    "EPHEMERIS_TYPE": 0,
    "CLASSIFICATION_TYPE": "U",
    "NORAD_CAT_ID": 63886,
    "ELEMENT_SET_NO": 999,
    "REV_AT_EPOCH": 2943,
    "BSTAR": 0.00043328,
    "MEAN_MOTION_DOT": 5.082e-05,
    "MEAN_MOTION_DDOT": 0.0,
    "TLE_LINE1": "1 63886U 25094Y   25315.03906195  .00005082  00000+0  43328-3 0  9997",
    "TLE_LINE2": "2 63886  69.9999 173.4873 0002730 270.8811  89.2035 14.98342669 29433",
    "COMMENT": "Grouped by shell and plane from TLE"
  },
  {
    "OBJECT_NAME": "STARLINK-33904",
    "OBJECT_ID": "25094Z",
    "EPOCH": "2025-11-11T00:50:28.682880",
    "MEAN_MOTION": 14.98343377,
    "ECCENTRICITY": 0.0002569,
    "INCLINATION": 69.9996,
    "RA_OF_ASC_NODE": 173.474,
    "ARG_OF_PERICENTER": 270.1068,
    "MEAN_ANOMALY": 89.9797,
    "EPHEMERIS_TYPE": 0,
    "CLASSIFICATION_TYPE": "U",
    "NORAD_CAT_ID": 63887,
    "ELEMENT_SET_NO": 999,
    "REV_AT_EPOCH": 2943,
    "BSTAR": 0.00051378,
    "MEAN_MOTION_DOT": 6.045e-05,
    "MEAN_MOTION_DDOT": 0.0,
    "TLE_LINE1": "1 63887U 25094Z   25315.03505420  .00006045  00000+0  51378-3 0  9998",
    "TLE_LINE2": "2 63887  69.9996 173.4740 0002569 270.1068  89.9797 14.98343377 29430",
    "COMMENT": "Grouped by shell and plane from TLE"
  },
  {
    "OBJECT_NAME": "STARLINK-33981",
    "OBJECT_ID": "25094AA",
    "EPOCH": "2025-11-11T00:08:28.305024",
    "MEAN_MOTION": 14.98345367,
    "ECCENTRICITY": 0.0003014,
    "INCLINATION": 69.9998,
    "RA_OF_ASC_NODE": 173.772,
    "ARG_OF_PERICENTER": 272.7019,
    "MEAN_ANOMALY": 87.3795,
    "EPHEMERIS_TYPE": 0,
    "CLASSIFICATION_TYPE": "U",
    "NORAD_CAT_ID": 63888,
    "ELEMENT_SET_NO": 999,
    "REV_AT_EPOCH": 2942,
    "BSTAR": 0.0009727700000000001,
    "MEAN_MOTION_DOT": 0.00011538,
    "MEAN_MOTION_DDOT": 0.0,
    "TLE_LINE1": "1 63888U 25094AA  25315.00588316  .00011538  00000+0  97277-3 0  9992",
    "TLE_LINE2": "2 63888  69.9998 173.7720 0003014 272.7019  87.3795 14.98345367 29424",
    "COMMENT": "Grouped by shell and plane from TLE"
  },
  {
    "OBJECT_NAME": "STARLINK-33738",
    "OBJECT_ID": "25094AB",
    "EPOCH": "2025-11-10T23:50:25.880640",
    "MEAN_MOTION": 14.98350119,
    "ECCENTRICITY": 0.0002806,
    "INCLINATION": 69.9999,
    "RA_OF_ASC_NODE": 173.7035,
    "ARG_OF_PERICENTER": 272.5824,
    "MEAN_ANOMALY": 87.5014,
    "EPHEMERIS_TYPE": 0,
    "CLASSIFICATION_TYPE": "U",
    "NORAD_CAT_ID": 63889,
    "ELEMENT_SET_NO": 999,
    "REV_AT_EPOCH": 2964,
    "BSTAR": 0.00067486,
    "MEAN_MOTION_DOT": 7.973e-05,
    "MEAN_MOTION_DDOT": 0.0,
    "TLE_LINE1": "1 63889U 25094AB  25314.99335510  .00007973  00000+0  67486-3 0  9993",
    "TLE_LINE2": "2 63889  69.9999 173.7035 0002806 272.5824  87.5014 14.98350119 29646",
    "COMMENT": "Grouped by shell and plane from TLE"
  },
  {
    "OBJECT_NAME": "STARLINK-34705",
    "OBJECT_ID": "25158A",
    "EPOCH": "2025-11-11T04:49:01.857216",
    "MEAN_MOTION": 15.05658985,
    "ECCENTRICITY": 0.0002543,
    "INCLINATION": 97.6001,
    "RA_OF_ASC_NODE": 177.2423,
    "ARG_OF_PERICENTER": 85.8809,
    "MEAN_ANOMALY": 274.2708,
    "EPHEMERIS_TYPE": 0,
    "CLASSIFICATION_TYPE": "U",
    "NORAD_CAT_ID": 64932,
    "ELEMENT_SET_NO": 999,
    "REV_AT_EPOCH": 1752,
    "BSTAR": 0.00054555,
    "MEAN_MOTION_DOT": 7.822e-05,
    "MEAN_MOTION_DDOT": 0.0,
    "TLE_LINE1": "1 64932U 25158A   25315.20071594  .00007822  00000+0  54555-3 0  9994",
    "TLE_LINE2": "2 64932  97.6001 177.2423 0002543  85.8809 274.2708 15.05658985 17524",
    "COMMENT": "Grouped by shell and plane from TLE"
  },
  {
    "OBJECT_NAME": "STARLINK-34737",
    "OBJECT_ID": "25158B",
    "EPOCH": "2025-11-11T04:33:06.937632",
    "MEAN_MOTION": 15.05653933,
    "ECCENTRICITY": 0.0002392,
    "INCLINATION": 97.6013,
    "RA_OF_ASC_NODE": 177.2547,
    "ARG_OF_PERICENTER": 73.3279,
    "MEAN_ANOMALY": 286.821,
    "EPHEMERIS_TYPE": 0,
    "CLASSIFICATION_TYPE": "U",
    "NORAD_CAT_ID": 64933,
    "ELEMENT_SET_NO": 999,
    "REV_AT_EPOCH": 1752,
    "BSTAR": 0.00084367,
    "MEAN_MOTION_DOT": 0.00012135,
    "MEAN_MOTION_DDOT": 0.0,
    "TLE_LINE1": "1 64933U 25158B   25315.18966363  .00012135  00000+0  84367-3 0  9996",
    "TLE_LINE2": "2 64933  97.6013 177.2547 0002392  73.3279 286.8210 15.05653933 17525",
    "COMMENT": "Grouped by shell and plane from TLE"
  },
  {
    "OBJECT_NAME": "STARLINK-34775",
    "OBJECT_ID": "25158C",
    "EPOCH": "2025-11-11T04:29:05.935200",
    "MEAN_MOTION": 15.0565543,
    "ECCENTRICITY": 0.0003065,
    "INCLINATION": 97.6016,
    "RA_OF_ASC_NODE": 177.2639,
    "ARG_OF_PERICENTER": 69.5049,
    "MEAN_ANOMALY": 290.6507,
    "EPHEMERIS_TYPE": 0,
    "CLASSIFICATION_TYPE": "U",
    "NORAD_CAT_ID": 64934,
    "ELEMENT_SET_NO": 999,
    "REV_AT_EPOCH": 1752,
    "BSTAR": 0.00037879,
    "MEAN_MOTION_DOT": 5.41e-05,
    "MEAN_MOTION_DDOT": 0.0,
    "TLE_LINE1": "1 64934U 25158C   25315.18687425  .00005410  00000+0  37879-3 0  9990",
    "TLE_LINE2": "2 64934  97.6016 177.2639 0003065  69.5049 290.6507 15.05655430 17527",
    "COMMENT": "Grouped by shell and plane from TLE"
  },
  {
    "OBJECT_NAME": "STARLINK-34726",
    "OBJECT_ID": "25158D",
    "EPOCH": "2025-11-11T03:57:12.171744",
    "MEAN_MOTION": 15.05657283,
    "ECCENTRICITY": 0.0002451,
    "INCLINATION": 97.602,
    "RA_OF_ASC_NODE": 177.2936,
    "ARG_OF_PERICENTER": 90.5903,
    "MEAN_ANOMALY": 269.5604,
    "EPHEMERIS_TYPE": 0,
    "CLASSIFICATION_TYPE": "U",
    "NORAD_CAT_ID": 64935,
    "ELEMENT_SET_NO": 999,
    "REV_AT_EPOCH": 1752,
    "BSTAR": 0.000615,
    "MEAN_MOTION_DOT": 8.826e-05,
    "MEAN_MOTION_DDOT": 0.0,
    "TLE_LINE1": "1 64935U 25158D   25315.16472421  .00008826  00000+0  61500-3 0  9999",
    "TLE_LINE2": "2 64935  97.6020 177.2936 0002451  90.5903 269.5604 15.05657283 17525",
    "COMMENT": "Grouped by shell and plane from TLE"
  },
  {
    "OBJECT_NAME": "STARLINK-34529",
    "OBJECT_ID": "25158E",
    "EPOCH": "2025-11-11T04:41:03.452640",
    "MEAN_MOTION": 15.05659727,
    "ECCENTRICITY": 0.0002264,
    "INCLINATION": 97.6004,
    "RA_OF_ASC_NODE": 177.2528,
    "ARG_OF_PERICENTER": 83.9246,
    "MEAN_ANOMALY": 276.2239,
    "EPHEMERIS_TYPE": 0,
    "CLASSIFICATION_TYPE": "U",
    "NORAD_CAT_ID": 64936,
    "ELEMENT_SET_NO": 999,
    "REV_AT_EPOCH": 1752,
    "BSTAR": 0.0007679000000000001,
    "MEAN_MOTION_DOT": 0.0001104,
    "MEAN_MOTION_DDOT": 0.0,
    "TLE_LINE1": "1 64936U 25158E   25315.19517885  .00011040  00000+0  76790-3 0  9996",
    "TLE_LINE2": "2 64936  97.6004 177.2528 0002264  83.9246 276.2239 15.05659727 17527",
    "COMMENT": "Grouped by shell and plane from TLE"
  },
  {
    "OBJECT_NAME": "STARLINK-34743",
    "OBJECT_ID": "25158F",
    "EPOCH": "2025-11-11T04:25:07.166208",
    "MEAN_MOTION": 15.05667243,
    "ECCENTRICITY": 0.0003602,
    "INCLINATION": 97.6009,
    "RA_OF_ASC_NODE": 177.2693,
    "ARG_OF_PERICENTER": 74.5698,
    "MEAN_ANOMALY": 285.5927,
    "EPHEMERIS_TYPE": 0,
    "CLASSIFICATION_TYPE": "U",
    "NORAD_CAT_ID": 64937,
    "ELEMENT_SET_NO": 999,
    "REV_AT_EPOCH": 1752,
    "BSTAR": 0.00029817,
    "MEAN_MOTION_DOT": 4.246e-05,
    "MEAN_MOTION_DDOT": 0.0,
    "TLE_LINE1": "1 64937U 25158F   25315.18411072  .00004246  00000+0  29817-3 0  9995",
    "TLE_LINE2": "2 64937  97.6009 177.2693 0003602  74.5698 285.5927 15.05667243 17529",
    "COMMENT": "Grouped by shell and plane from TLE"
  },
  {
    "OBJECT_NAME": "STARLINK-34730",
    "OBJECT_ID": "25158G",
    "EPOCH": "2025-11-11T05:04:59.342016",
    "MEAN_MOTION": 15.0564646,
    "ECCENTRICITY": 0.0002794,
    "INCLINATION": 97.601,
    "RA_OF_ASC_NODE": 177.3802,
    "ARG_OF_PERICENTER": 87.2183,
    "MEAN_ANOMALY": 272.9364,
    "EPHEMERIS_TYPE": 0,
    "CLASSIFICATION_TYPE": "U",
    "NORAD_CAT_ID": 64938,
    "ELEMENT_SET_NO": 999,
    "REV_AT_EPOCH": 1753,
    "BSTAR": 0.0,
    "MEAN_MOTION_DOT": -1.16e-05,
    "MEAN_MOTION_DDOT": 0.0,
    "TLE_LINE1": "1 64938U 25158G   25315.21179794 -.00001160  00000+0 -76158-4 0  9997",
    "TLE_LINE2": "2 64938  97.6010 177.3802 0002794  87.2183 272.9364 15.05646460 17530",
    "COMMENT": "Grouped by shell and plane from TLE"
  },
  {
    "OBJECT_NAME": "STARLINK-34714",
    "OBJECT_ID": "25158H",
    "EPOCH": "2025-11-11T05:08:59.178912",
    "MEAN_MOTION": 15.056611,
    "ECCENTRICITY": 0.0003437,
    "INCLINATION": 97.6016,
    "RA_OF_ASC_NODE": 177.3828,
    "ARG_OF_PERICENTER": 82.9952,
    "MEAN_ANOMALY": 277.1666,
    "EPHEMERIS_TYPE": 0,
    "CLASSIFICATION_TYPE": "U",
    "NORAD_CAT_ID": 64939,
    "ELEMENT_SET_NO": 999,
    "REV_AT_EPOCH": 1737,
    "BSTAR": 0.0005493599999999999,
    "MEAN_MOTION_DOT": 7.878e-05,
    "MEAN_MOTION_DDOT": 0.0,
    "TLE_LINE1": "1 64939U 25158H   25315.21457383  .00007878  00000+0  54936-3 0  9990",
    "TLE_LINE2": "2 64939  97.6016 177.3828 0003437  82.9952 277.1666 15.05661100 17378",
    "COMMENT": "Grouped by shell and plane from TLE"
  }
]